{
    "links": {
        "self": "http://www.neowsapp.com/rest/v1/neo/3548084?api_key=iIulBulltgU6a56xZRHN4H3l9WmuAYTsLGpBGhQ2"
    },
    "id": "3548084",
    "neo_reference_id": "3548084",
    "name": "(2010 TJ19)",
    "designation": "2010 TJ19",
    "nasa_jpl_url": "http://ssd.jpl.nasa.gov/sbdb.cgi?sstr=3548084",
    "absolute_magnitude_h": 26.1,
    "estimated_diameter": {
        "kilometers": {
            "estimated_diameter_min": 0.0160160338,
            "estimated_diameter_max": 0.0358129403
        },
        "meters": {
            "estimated_diameter_min": 16.0160337979,
            "estimated_diameter_max": 35.8129403019
        },
        "miles": {
            "estimated_diameter_min": 0.0099518989,
            "estimated_diameter_max": 0.0222531225
        },
        "feet": {
            "estimated_diameter_min": 52.5460443254,
            "estimated_diameter_max": 117.4965270602
        }
    },
    "is_potentially_hazardous_asteroid": false,
    "close_approach_data": [
        {
            "close_approach_date": "2010-10-09",
            "close_approach_date_full": "2010-Oct-09 15:40",
            "epoch_date_close_approach": 1286638800000,
            "relative_velocity": {
                "kilometers_per_second": "5.2129115531",
                "kilometers_per_hour": "18766.481591176",
                "miles_per_hour": "11660.7618531393"
            },
            "miss_distance": {
                "astronomical": "0.0304131189",
                "lunar": "11.8307032521",
                "kilometers": "4549737.807496743",
                "miles": "2827075.9803233334"
            },
            "orbiting_body": "Earth"
        },
        {
            "close_approach_date": "2057-11-05",
            "close_approach_date_full": "2057-Nov-05 21:09",
            "epoch_date_close_approach": 2772220140000,
            "relative_velocity": {
                "kilometers_per_second": "6.2604069503",
                "kilometers_per_hour": "22537.4650209383",
                "miles_per_hour": "14003.904307038"
            },
            "miss_distance": {
                "astronomical": "0.095595063",
                "lunar": "37.186479507",
                "kilometers": "14300817.80731581",
                "miles": "8886116.130785778"
            },
            "orbiting_body": "Earth"
        }
    ],
    "orbital_data": {
        "orbit_id": "8",
        "orbit_determination_date": "2019-07-16 06:14:07",
        "first_observation_date": "2010-10-07",
        "last_observation_date": "2010-10-08",
        "data_arc_in_days": 1,
        "observations_used": 31,
        "orbit_uncertainty": "8",
        "minimum_orbit_intersection": ".0304091",
        "jupiter_tisserand_invariant": "4.428",
        "epoch_osculation": "2455476.5",
        "eccentricity": ".3307793222687146",
        "semi_major_axis": "1.525580603247405",
        "inclination": "5.617344426891474",
        "ascending_node_longitude": "189.6717337560833",
        "orbital_period": "688.2578354839795",
        "perihelion_distance": "1.020950085238932",
        "perihelion_argument": "199.1185498278615",
        "aphelion_distance": "2.030211121255879",
        "perihelion_time": "2455490.654238124900",
        "mean_anomaly": "352.5964871560367",
        "mean_motion": ".5230597916068035",
        "equinox": "J2000",
        "orbit_class": {
            "orbit_class_type": "AMO",
            "orbit_class_description": "Near-Earth asteroid orbits similar to that of 1221 Amor",
            "orbit_class_range": "1.017 AU < q (perihelion) < 1.3 AU"
        }
    },
    "is_sentry_object": false
}